[{"OBJECT_NAME":"YAM-7","OBJECT_ID":"2024-149AN","EPOCH":"2026-03-09T17:13:55.117920","MEAN_MOTION":15.30304554,"ECCENTRICITY":0.00019733,"INCLINATION":97.3828,"RA_OF_ASC_NODE":149.4631,"ARG_OF_PERICENTER":296.5121,"MEAN_ANOMALY":63.5918,"EPHEMERIS_TYPE":0,"CLASSIFICATION_TYPE":"U","NORAD_CAT_ID":60504,"ELEMENT_SET_NO":999,"REV_AT_EPOCH":8683,"BSTAR":0.00030984439,"MEAN_MOTION_DOT":9.009e-5,"MEAN_MOTION_DDOT":0},{"OBJECT_NAME":"STARLINK-35096","OBJECT_ID":"2025-195X","EPOCH":"2026-03-09T22:11:26.168352","MEAN_MOTION":15.302005,"ECCENTRICITY":9.247e-5,"INCLINATION":53.1587,"RA_OF_ASC_NODE":256.8009,"ARG_OF_PERICENTER":84.5439,"MEAN_ANOMALY":275.5667,"EPHEMERIS_TYPE":0,"CLASSIFICATION_TYPE":"U","NORAD_CAT_ID":65479,"ELEMENT_SET_NO":999,"REV_AT_EPOCH":3001,"BSTAR":0.0011212881,"MEAN_MOTION_DOT":0.00032998,"MEAN_MOTION_DDOT":0}]
